[{"OBJECT_NAME":"OBJECT F","OBJECT_ID":"2023-072F","EPOCH":"2026-03-09T23:31:37.259904","MEAN_MOTION":15.29470958,"ECCENTRICITY":0.00062878,"INCLINATION":97.5173,"RA_OF_ASC_NODE":265.798,"ARG_OF_PERICENTER":19.0017,"MEAN_ANOMALY":341.1456,"EPHEMERIS_TYPE":0,"CLASSIFICATION_TYPE":"U","NORAD_CAT_ID":56748,"ELEMENT_SET_NO":999,"REV_AT_EPOCH":15460,"BSTAR":0.00043416252,"MEAN_MOTION_DOT":0.00012341,"MEAN_MOTION_DDOT":0},{"OBJECT_NAME":"STARLINK-34253","OBJECT_ID":"2025-139X","EPOCH":"2026-03-09T10:32:19.234464","MEAN_MOTION":15.30248133,"ECCENTRICITY":0.00022558,"INCLINATION":53.1589,"RA_OF_ASC_NODE":128.3519,"ARG_OF_PERICENTER":38.4064,"MEAN_ANOMALY":321.7097,"EPHEMERIS_TYPE":0,"CLASSIFICATION_TYPE":"U","NORAD_CAT_ID":64685,"ELEMENT_SET_NO":999,"REV_AT_EPOCH":4024,"BSTAR":0.0016814642,"MEAN_MOTION_DOT":0.00049852,"MEAN_MOTION_DDOT":0}]
